CCSDS_OMM_VERS = 2.0
CREATION_DATE  = 
ORIGINATOR     = 

OBJECT_NAME    = STARLINK-36879
OBJECT_ID      = 2026-038X
CENTER_NAME    = EARTH
REF_FRAME      = TEME
TIME_SYSTEM    = UTC
MEAN_ELEMENT_THEORY = SGP/SGP4

EPOCH          = 2026-03-11T10:00:01.999584
MEAN_MOTION    = 15.84830513
ECCENTRICITY   = .0001343
INCLINATION    = 97.2672
RA_OF_ASC_NODE = 80.8414
ARG_OF_PERICENTER = 99.6311
MEAN_ANOMALY   = 174.6226

EPHEMERIS_TYPE = 0
CLASSIFICATION_TYPE = U
NORAD_CAT_ID   = 67982
ELEMENT_SET_NO = 999
REV_AT_EPOCH   = 347
BSTAR          = -.72907E-2
MEAN_MOTION_DOT = -.1491539E-1
MEAN_MOTION_DDOT = 0

CCSDS_OMM_VERS = 2.0
CREATION_DATE  = 
ORIGINATOR     = 

OBJECT_NAME    = STARLINK-36867
OBJECT_ID      = 2026-038Y
CENTER_NAME    = EARTH
REF_FRAME      = TEME
TIME_SYSTEM    = UTC
MEAN_ELEMENT_THEORY = SGP/SGP4

EPOCH          = 2026-03-11T10:00:01.999584
MEAN_MOTION    = 15.85166299
ECCENTRICITY   = .0001324
INCLINATION    = 97.2665
RA_OF_ASC_NODE = 80.8465
ARG_OF_PERICENTER = 103.6832
MEAN_ANOMALY   = 182.2391

EPHEMERIS_TYPE = 0
CLASSIFICATION_TYPE = U
NORAD_CAT_ID   = 67983
ELEMENT_SET_NO = 999
REV_AT_EPOCH   = 347
BSTAR          = -.71743E-2
MEAN_MOTION_DOT = -.1491664E-1
MEAN_MOTION_DDOT = 0

CCSDS_OMM_VERS = 2.0
CREATION_DATE  = 
ORIGINATOR     = 

OBJECT_NAME    = STARLINK-36266
OBJECT_ID      = 2026-038Z
CENTER_NAME    = EARTH
REF_FRAME      = TEME
TIME_SYSTEM    = UTC
MEAN_ELEMENT_THEORY = SGP/SGP4

EPOCH          = 2026-03-11T12:00:02.998944
MEAN_MOTION    = 15.84778061
ECCENTRICITY   = .0001255
INCLINATION    = 97.2671
RA_OF_ASC_NODE = 80.9330
ARG_OF_PERICENTER = 109.8772
MEAN_ANOMALY   = 285.9921

EPHEMERIS_TYPE = 0
CLASSIFICATION_TYPE = U
NORAD_CAT_ID   = 67984
ELEMENT_SET_NO = 999
REV_AT_EPOCH   = 346
BSTAR          = -.76258E-2
MEAN_MOTION_DOT = -.154839E-1
MEAN_MOTION_DDOT = 0

CCSDS_OMM_VERS = 2.0
CREATION_DATE  = 
ORIGINATOR     = 

OBJECT_NAME    = STARLINK-36802
OBJECT_ID      = 2026-038AA
CENTER_NAME    = EARTH
REF_FRAME      = TEME
TIME_SYSTEM    = UTC
MEAN_ELEMENT_THEORY = SGP/SGP4

EPOCH          = 2026-03-11T12:00:02.998944
MEAN_MOTION    = 15.85054814
ECCENTRICITY   = .0001278
INCLINATION    = 97.2664
RA_OF_ASC_NODE = 80.9371
ARG_OF_PERICENTER = 96.1419
MEAN_ANOMALY   = 309.8460

EPHEMERIS_TYPE = 0
CLASSIFICATION_TYPE = U
NORAD_CAT_ID   = 67985
ELEMENT_SET_NO = 999
REV_AT_EPOCH   = 349
BSTAR          = -.74636E-2
MEAN_MOTION_DOT = -.1537311E-1
MEAN_MOTION_DDOT = 0

CCSDS_OMM_VERS = 2.0
CREATION_DATE  = 
ORIGINATOR     = 

OBJECT_NAME    = STARLINK-36535
OBJECT_ID      = 2026-039A
CENTER_NAME    = EARTH
REF_FRAME      = TEME
TIME_SYSTEM    = UTC
MEAN_ELEMENT_THEORY = SGP/SGP4

EPOCH          = 2026-03-11T10:00:01.999584
MEAN_MOTION    = 15.81938709
ECCENTRICITY   = .0001124
INCLINATION    = 42.9992
RA_OF_ASC_NODE = 44.3560
ARG_OF_PERICENTER = 286.8490
MEAN_ANOMALY   = 246.1053

EPHEMERIS_TYPE = 0
CLASSIFICATION_TYPE = U
NORAD_CAT_ID   = 67986
ELEMENT_SET_NO = 999
REV_AT_EPOCH   = 315
BSTAR          = .64626E-3
MEAN_MOTION_DOT = .137222E-2
MEAN_MOTION_DDOT = 0

CCSDS_OMM_VERS = 2.0
CREATION_DATE  = 
ORIGINATOR     = 

OBJECT_NAME    = STARLINK-36744
OBJECT_ID      = 2026-039B
CENTER_NAME    = EARTH
REF_FRAME      = TEME
TIME_SYSTEM    = UTC
MEAN_ELEMENT_THEORY = SGP/SGP4

EPOCH          = 2026-03-11T10:00:01.999584
MEAN_MOTION    = 15.81913973
ECCENTRICITY   = .0001545
INCLINATION    = 42.9994
RA_OF_ASC_NODE = 44.3451
ARG_OF_PERICENTER = 262.7180
MEAN_ANOMALY   = 274.5389

EPHEMERIS_TYPE = 0
CLASSIFICATION_TYPE = U
NORAD_CAT_ID   = 67987
ELEMENT_SET_NO = 999
REV_AT_EPOCH   = 315
BSTAR          = .68492E-3
MEAN_MOTION_DOT = .145437E-2
MEAN_MOTION_DDOT = 0

CCSDS_OMM_VERS = 2.0
CREATION_DATE  = 
ORIGINATOR     = 

OBJECT_NAME    = STARLINK-36734
OBJECT_ID      = 2026-039C
CENTER_NAME    = EARTH
REF_FRAME      = TEME
TIME_SYSTEM    = UTC
MEAN_ELEMENT_THEORY = SGP/SGP4

EPOCH          = 2026-03-11T10:00:01.999584
MEAN_MOTION    = 15.78565058
ECCENTRICITY   = .0001188
INCLINATION    = 42.9993
RA_OF_ASC_NODE = 44.3463
ARG_OF_PERICENTER = 269.7501
MEAN_ANOMALY   = 266.6378

EPHEMERIS_TYPE = 0
CLASSIFICATION_TYPE = U
NORAD_CAT_ID   = 67988
ELEMENT_SET_NO = 999
REV_AT_EPOCH   = 315
BSTAR          = -.11916E-1
MEAN_MOTION_DOT = -.186991E-1
MEAN_MOTION_DDOT = 0

CCSDS_OMM_VERS = 2.0
CREATION_DATE  = 
ORIGINATOR     = 

OBJECT_NAME    = STARLINK-36957
OBJECT_ID      = 2026-039D
CENTER_NAME    = EARTH
REF_FRAME      = TEME
TIME_SYSTEM    = UTC
MEAN_ELEMENT_THEORY = SGP/SGP4

EPOCH          = 2026-03-11T10:00:01.999584
MEAN_MOTION    = 15.81924793
ECCENTRICITY   = .0001572
INCLINATION    = 42.9992
RA_OF_ASC_NODE = 44.3221
ARG_OF_PERICENTER = 283.7851
MEAN_ANOMALY   = 262.0107

EPHEMERIS_TYPE = 0
CLASSIFICATION_TYPE = U
NORAD_CAT_ID   = 67989
ELEMENT_SET_NO = 999
REV_AT_EPOCH   = 315
BSTAR          = .74352E-3
MEAN_MOTION_DOT = .15824E-2
MEAN_MOTION_DDOT = 0

CCSDS_OMM_VERS = 2.0
CREATION_DATE  = 
ORIGINATOR     = 

OBJECT_NAME    = STARLINK-36951
OBJECT_ID      = 2026-039E
CENTER_NAME    = EARTH
REF_FRAME      = TEME
TIME_SYSTEM    = UTC
MEAN_ELEMENT_THEORY = SGP/SGP4

EPOCH          = 2026-03-11T06:00:02.000160
MEAN_MOTION    = 15.81962755
ECCENTRICITY   = .00016025
INCLINATION    = 42.9994
RA_OF_ASC_NODE = 45.3337
ARG_OF_PERICENTER = 276.1730
MEAN_ANOMALY   = 43.5111

EPHEMERIS_TYPE = 0
CLASSIFICATION_TYPE = U
NORAD_CAT_ID   = 67990
ELEMENT_SET_NO = 999
REV_AT_EPOCH   = 312
BSTAR          = .34044555E-3
MEAN_MOTION_DOT = .71568E-3
MEAN_MOTION_DDOT = 0

CCSDS_OMM_VERS = 2.0
CREATION_DATE  = 
ORIGINATOR     = 

OBJECT_NAME    = STARLINK-36941
OBJECT_ID      = 2026-039F
CENTER_NAME    = EARTH
REF_FRAME      = TEME
TIME_SYSTEM    = UTC
MEAN_ELEMENT_THEORY = SGP/SGP4

EPOCH          = 2026-03-11T12:00:02.998944
MEAN_MOTION    = 15.77896350
ECCENTRICITY   = .0001513
INCLINATION    = 42.9993
RA_OF_ASC_NODE = 43.8066
ARG_OF_PERICENTER = 258.3067
MEAN_ANOMALY   = 43.8765

EPHEMERIS_TYPE = 0
CLASSIFICATION_TYPE = U
NORAD_CAT_ID   = 67991
ELEMENT_SET_NO = 999
REV_AT_EPOCH   = 316
BSTAR          = -.12635E-1
MEAN_MOTION_DOT = -.1916285E-1
MEAN_MOTION_DDOT = 0

CCSDS_OMM_VERS = 2.0
CREATION_DATE  = 
ORIGINATOR     = 

OBJECT_NAME    = STARLINK-36950
OBJECT_ID      = 2026-039G
CENTER_NAME    = EARTH
REF_FRAME      = TEME
TIME_SYSTEM    = UTC
MEAN_ELEMENT_THEORY = SGP/SGP4

EPOCH          = 2026-03-11T12:00:02.998944
MEAN_MOTION    = 15.82181060
ECCENTRICITY   = .0001621
INCLINATION    = 42.9994
RA_OF_ASC_NODE = 43.7774
ARG_OF_PERICENTER = 263.8882
MEAN_ANOMALY   = 49.8982

EPHEMERIS_TYPE = 0
CLASSIFICATION_TYPE = U
NORAD_CAT_ID   = 67992
ELEMENT_SET_NO = 999
REV_AT_EPOCH   = 316
BSTAR          = -.23722E-2
MEAN_MOTION_DOT = -.477199E-2
MEAN_MOTION_DDOT = 0

CCSDS_OMM_VERS = 2.0
CREATION_DATE  = 
ORIGINATOR     = 

OBJECT_NAME    = STARLINK-36975
OBJECT_ID      = 2026-039H
CENTER_NAME    = EARTH
REF_FRAME      = TEME
TIME_SYSTEM    = UTC
MEAN_ELEMENT_THEORY = SGP/SGP4

EPOCH          = 2026-03-11T10:00:01.999584
MEAN_MOTION    = 15.81963849
ECCENTRICITY   = .0001993
INCLINATION    = 42.9994
RA_OF_ASC_NODE = 44.2785
ARG_OF_PERICENTER = 267.8583
MEAN_ANOMALY   = 295.0132

EPHEMERIS_TYPE = 0
CLASSIFICATION_TYPE = U
NORAD_CAT_ID   = 67993
ELEMENT_SET_NO = 999
REV_AT_EPOCH   = 315
BSTAR          = .26894E-3
MEAN_MOTION_DOT = .56329E-3
MEAN_MOTION_DDOT = 0

