STARLINK-36879          
1 67982U 26038X   26070.41668981 -.01491539  00000+0 -72907-2 0  9999
2 67982  97.2672  80.8414 0001343  99.6311 174.6226 15.84830513  3472
STARLINK-36867          
1 67983U 26038Y   26070.41668981 -.01491664  00000+0 -71743-2 0  9996
2 67983  97.2665  80.8465 0001324 103.6832 182.2391 15.85166299  3476
STARLINK-36266          
1 67984U 26038Z   26070.50003471 -.01548390  00000+0 -76258-2 0  9999
2 67984  97.2671  80.9330 0001255 109.8772 285.9921 15.84778061  3464
STARLINK-36802          
1 67985U 26038AA  26070.50003471 -.01537311  00000+0 -74636-2 0  9999
2 67985  97.2664  80.9371 0001278  96.1419 309.8460 15.85054814  3494
STARLINK-36535          
1 67986U 26039A   26070.41668981  .00137222  00000+0  64626-3 0  9997
2 67986  42.9992  44.3560 0001124 286.8490 246.1053 15.81938709  3151
STARLINK-36744          
1 67987U 26039B   26070.41668981  .00145437  00000+0  68492-3 0  9990
2 67987  42.9994  44.3451 0001545 262.7180 274.5389 15.81913973  3152
STARLINK-36734          
1 67988U 26039C   26070.41668981 -.01869910  00000+0 -11916-1 0  9990
2 67988  42.9993  44.3463 0001188 269.7501 266.6378 15.78565058  3155
STARLINK-36957          
1 67989U 26039D   26070.41668981  .00158240  00000+0  74352-3 0  9990
2 67989  42.9992  44.3221 0001572 283.7851 262.0107 15.81924793  3157
STARLINK-36951          
1 67990U 26039E   26070.25002315  .00071568  00000+0  34045-3 0  9999
2 67990  42.9994  45.3337 0001602 276.1730  43.5111 15.81962755  3120
STARLINK-36941          
1 67991U 26039F   26070.50003471 -.01916285  00000+0 -12635-1 0  9998
2 67991  42.9993  43.8066 0001513 258.3067  43.8765 15.77896350  3162
STARLINK-36950          
1 67992U 26039G   26070.50003471 -.00477199  00000+0 -23722-2 0  9994
2 67992  42.9994  43.7774 0001621 263.8882  49.8982 15.82181060  3163
STARLINK-36975          
1 67993U 26039H   26070.41668981  .00056329  00000+0  26894-3 0  9998
2 67993  42.9994  44.2785 0001993 267.8583 295.0132 15.81963849  3159
